JCSAT-3A                
1 29272U 06033A   26181.82567781 -.00000334  00000+0  00000+0 0  9995
2 29272   0.0135 329.3881 0002526 139.3315 235.4030  1.00270056 47871
KOREASAT 5 (MUGUNGWHA 5)
1 29349U 06034A   26181.75149056 -.00000349  00000+0  00000+0 0  9990
2 29349   1.8185  82.8360 0001990  55.3706 164.1992  1.00270224 41458
OPTUS D1                
1 29495U 06043B   26181.75920391 -.00000176  00000+0  00000+0 0  9999
2 29495   3.0680  79.4967 0003688  13.0222 251.5676  1.00270264 72255
WILDBLUE-1              
1 29643U 06054A   26181.60173174 -.00000041  00000+0  00000+0 0  9990
2 29643   2.8360  80.3228 0001723  16.8005 286.9494  1.00271392 53927
SKYNET 5A               
1 30794U 07007B   26181.85636286 -.00000264  00000+0  00000+0 0  9990
2 30794   5.3343  73.5757 0003738  31.6859 217.1497  1.00269936 70835
ANIK F3                 
1 31102U 07009A   26181.70557909  .00000009  00000+0  00000+0 0  9990
2 31102   1.2308  83.7051 0002908  13.1307 317.2321  1.00271178 46692
ASTRA 1L                
1 31306U 07016A   26181.79555918 -.00000175  00000+0  00000+0 0  9996
2 31306   1.3552  81.4884 0005694  20.5189  78.7603  1.00272230 45123
GALAXY 17 (G-17)        
1 31307U 07016B   26181.78355735 -.00000198  00000+0  00000+0 0  9996
2 31307   3.0045  79.7377 0004048  18.2690  17.9112  1.00271377 69947
INTELSAT 11 (IS-11)     
1 32253U 07044B   26181.81337110  .00000089  00000+0  00000+0 0  9997
2 32253   3.5991  78.5117 0003353  86.9540 112.0879  0.99047743 68587
WGS F1 (USA 195)        
1 32258U 07046A   26181.79200582 -.00000257  00000+0  00000+0 0  9991
2 32258   0.0231  73.2750 0000172  37.0193  51.1955  1.00270789 52473
HORIZONS-2              
1 32388U 07063B   26181.78572404 -.00000245  00000+0  00000+0 0  9995
2 32388   2.6354  80.4682 0004110  10.8630  36.5603  1.00269972 67954
THURAYA-3               
1 32404U 08001A   26181.67078939  .00000025  00000+0  00000+0 0  9994
2 32404   6.0107  35.8094 0000666 135.0451  54.9350  1.00140960 67623
THOR 5                  
1 32487U 08006A   26181.72892281  .00000002  00000+0  00000+0 0  9995
2 32487   0.0396 241.2651 0002745 222.6973  76.4855  1.00272000 67453
AMC-14                  
1 32708U 08011A   26181.10139561 -.00000104  00000+0  00000+0 0  9998
2 32708  24.0247  20.3646 0040688   8.1962 356.8890  1.00420523 68307
DIRECTV 11              
1 32729U 08013A   26181.59747535 -.00000115  00000+0  00000+0 0  9994
2 32729   0.0118 261.6721 0000347 164.8959 328.0030  1.00269308 45729
ICO G1                  
1 32763U 08016A   26181.14041064 -.00000165  00000+0  00000+0 0  9995
2 32763   5.5315  36.1013 0002242  54.5926 145.2015  1.00271083 66672
VINASAT-1               
1 32767U 08018A   26180.69141917 -.00000317  00000+0  00000+0 0  9997
2 32767   0.0155 326.6573 0001615 139.2527 192.7053  1.00271427 66713
STAR ONE C2             
1 32768U 08018B   26181.78749916 -.00000267  00000+0  00000+0 0  9996
2 32768   1.2739  82.3546 0003039  30.0038  24.9703  1.00269476 66795
AMOS-3                  
1 32794U 08022A   26181.81009294  .00000101  00000+0  00000+0 0  9998
2 32794   0.4889  86.0513 0002700  68.7035 104.8905  1.00484058 82475
GALAXY 18 (G-18)        
1 32951U 08024A   26181.70471241  .00000036  00000+0  00000+0 0  9995
2 32951   0.0183  32.3577 0003215  70.8651 306.2398  1.00271806 45981
ECHOSTAR 11             
1 33207U 08035A   26181.60095780 -.00000048  00000+0  00000+0 0  9995
2 33207   1.0383  84.0486 0002671   4.6658 296.4948  1.00272236 51345
SUPERBIRD-C2            
1 33274U 08038A   26181.82732449 -.00000298  00000+0  00000+0 0  9993
2 33274   2.3945  81.1054 0006555  31.3029 240.3221  1.00270976105868
INMARSAT 4-F3           
1 33278U 08039A   26181.63834453 -.00000132  00000+0  00000+0 0  9992
2 33278   4.3039  31.6580 0002542  71.4623 307.3833  1.00271907 46681
NIMIQ 4                 
1 33373U 08044A   26181.78416403 -.00000210  00000+0  00000+0 0  9998
2 33373   0.0018 354.4786 0001937  89.0292  35.6418  1.00271723 65121
GALAXY 19 (G-19)        
1 33376U 08045A   26181.63860453 -.00000128  00000+0  00000+0 0  9992
2 33376   0.0539 254.4361 0002933 218.1887 298.9734  1.00271883 65034
