OBJECT_NAME,OBJECT_ID,EPOCH,MEAN_MOTION,ECCENTRICITY,INCLINATION,RA_OF_ASC_NODE,ARG_OF_PERICENTER,MEAN_ANOMALY,EPHEMERIS_TYPE,CLASSIFICATION_TYPE,NORAD_CAT_ID,ELEMENT_SET_NO,REV_AT_EPOCH,BSTAR,MEAN_MOTION_DOT,MEAN_MOTION_DDOT
JCSAT-3A,2006-033A,2026-06-30T19:48:58.563648,1.00270056,.00025259,0.0135,329.3881,139.3315,235.4030,0,U,29272,999,4787,0,-.334E-5,0
KOREASAT 5 (MUGUNGWHA 5),2006-034A,2026-06-30T18:02:08.784384,1.00270224,.00019898,1.8185,82.8360,55.3706,164.1992,0,U,29349,999,4145,0,-.349E-5,0
OPTUS D1,2006-043B,2026-06-30T18:13:15.218688,1.00270264,.00036883,3.0680,79.4967,13.0222,251.5676,0,U,29495,999,7225,0,-.176E-5,0
WILDBLUE-1,2006-054A,2026-06-30T14:26:29.622336,1.00271392,.00017234,2.8360,80.3228,16.8005,286.9494,0,U,29643,999,5392,0,-.41E-6,0
SKYNET 5A,2007-007B,2026-06-30T20:33:09.751968,1.00269936,.0003738,5.3343,73.5757,31.6859,217.1497,0,U,30794,999,7083,0,-.264E-5,0
ANIK F3,2007-009A,2026-06-30T16:56:02.033376,1.00271178,.00029079,1.2308,83.7051,13.1307,317.2321,0,U,31102,999,4669,0,.9E-7,0
ASTRA 1L,2007-016A,2026-06-30T19:05:36.313152,1.00272230,.00056938,1.3552,81.4884,20.5189,78.7603,0,U,31306,999,4512,0,-.175E-5,0
GALAXY 17 (G-17),2007-016B,2026-06-30T18:48:19.355904,1.00271377,.00040483,3.0045,79.7377,18.2690,17.9112,0,U,31307,999,6994,0,-.198E-5,0
INTELSAT 11 (IS-11),2007-044B,2026-06-30T19:31:15.263040,0.99047743,.0003353,3.5991,78.5117,86.9540,112.0879,0,U,32253,999,6858,0,.89E-6,0
WGS F1 (USA 195),2007-046A,2026-06-30T19:00:29.303712,1.00270789,.00001723,0.0231,73.2750,37.0193,51.1955,0,U,32258,999,5247,0,-.257E-5,0
HORIZONS-2,2007-063B,2026-06-30T18:51:26.557056,1.00269972,.00041104,2.6354,80.4682,10.8630,36.5603,0,U,32388,999,6795,0,-.245E-5,0
THURAYA-3,2008-001A,2026-06-30T16:05:56.203296,1.00140960,.00006656,6.0107,35.8094,135.0451,54.9350,0,U,32404,999,6762,0,.25E-6,0
THOR 5,2008-006A,2026-06-30T17:29:38.931648,1.00272000,.00027451,0.0396,241.2651,222.6973,76.4855,0,U,32487,999,6745,0,.2E-7,0
AMC-14,2008-011A,2026-06-30T02:26:00.580704,1.00420523,.00406883,24.0247,20.3646,8.1962,356.8890,0,U,32708,999,6830,0,-.104E-5,0
DIRECTV 11,2008-013A,2026-06-30T14:20:21.870240,1.00269308,.00003472,0.0118,261.6721,164.8959,328.0030,0,U,32729,999,4572,0,-.115E-5,0
ICO G1,2008-016A,2026-06-30T03:22:11.479296,1.00271083,.00022428,5.5315,36.1013,54.5926,145.2015,0,U,32763,999,6667,0,-.165E-5,0
VINASAT-1,2008-018A,2026-06-29T16:35:38.616288,1.00271427,.0001615,0.0155,326.6573,139.2527,192.7053,0,U,32767,999,6671,0,-.317E-5,0
STAR ONE C2,2008-018B,2026-06-30T18:53:59.927424,1.00269476,.0003039,1.2739,82.3546,30.0038,24.9703,0,U,32768,999,6679,0,-.267E-5,0
AMOS-3,2008-022A,2026-06-30T19:26:32.030016,1.00484058,.00026999,0.4889,86.0513,68.7035,104.8905,0,U,32794,999,8247,0,.101E-5,0
GALAXY 18 (G-18),2008-024A,2026-06-30T16:54:47.152224,1.00271806,.00032154,0.0183,32.3577,70.8651,306.2398,0,U,32951,999,4598,0,.36E-6,0
ECHOSTAR 11,2008-035A,2026-06-30T14:25:22.754784,1.00272236,.00026708,1.0383,84.0486,4.6658,296.4948,0,U,33207,999,5134,0,-.48E-6,0
SUPERBIRD-C2,2008-038A,2026-06-30T19:51:20.836800,1.00270976,.00065545,2.3945,81.1054,31.3029,240.3221,0,U,33274,999,10586,0,-.298E-5,0
INMARSAT 4-F3,2008-039A,2026-06-30T15:19:12.967392,1.00271907,.00025421,4.3039,31.6580,71.4623,307.3833,0,U,33278,999,4668,0,-.132E-5,0
NIMIQ 4,2008-044A,2026-06-30T18:49:11.772192,1.00271723,.00019365,0.0018,354.4786,89.0292,35.6418,0,U,33373,999,6512,0,-.21E-5,0
GALAXY 19 (G-19),2008-045A,2026-06-30T15:19:35.431392,1.00271883,.00029334,0.0539,254.4361,218.1887,298.9734,0,U,33376,999,6503,0,-.128E-5,0
